full_name,epoch_mjd,a,e,i,om,w,ma,n,first_obs,H,per_y
"       (2002 PT152)",52500,45.659231,0.,5.59191,135.94616,173.257,,.003194560995418971,2002-08-12,8.3,308.532623036766
"       (2002 VA95)",52591,44.79072599594289,.09344389110232713,1.979806403071286,172.4343098476941,245.6990050152658,359.9881882938613,.003287925142098015,2002-11-12,8.3,299.771509620998
"       (2002 XJ91)",52614,39.60330943870101,.2703825014060319,8.423434642309452,35.80019919727681,336.2239244400886,29.37521391977158,.003954639093026697,2002-12-05,8.3,249.232928765999
"       (2003 HJ57)",52756,39.68693467855123,.2501080134880532,22.17499740540207,15.33521344960105,98.51869045189117,54.95156879117322,.003942146315224727,2003-04-26,8.3,250.022755259243
"       (2003 UC414)",52976,44.93031047244451,.636605933544617,25.87993578008257,160.779659020524,285.8474546567262,335.8007623640535,.003272615209727189,2003-10-30,8.3,301.173899222243
"       (2003 WO193)",52992,38.62807649749105,.1861455157283915,6.628020960583371,112.7904904241452,265.0245284428053,359.8701560560847,.004105343014943426,2003-11-29,8.3,240.083783445106
"       (2004 HY78)",57000,39.40423227272075,.1980238672707694,12.57351824776223,25.15882080958863,193.5210117854357,5.665154704518319,.00398464622028356,2004-04-26,8.3,247.356033353801
"       (2004 KC19)",57000,39.24149745485191,.2359441407930666,5.640300550806693,240.602624771533,6.278367077713836,5.862902539312078,.004009458441808909,2004-05-24,8.3,245.825289792225
"       (2004 MS8)",57000,39.19942908230005,.2946509361403936,12.26702089010985,288.3630137097358,344.7545306421516,21.37406822744618,.004015914529615482,2004-06-24,8.3,245.430094714174
"       (2004 OL14)",57000,48.58667112073929,.3022593030354505,21.25098748726256,123.4155588136281,183.2262065752871,6.72205596816448,.002910236992582437,2004-07-17,8.3,338.675608165144
"       (2004 TU357)",53316,39.53039637596424,.2741049622049025,7.188328487648338,15.1329644161866,28.16380547568121,.09404396657303576,.003965585521428752,2004-10-15,8.3,248.544957117063
"       (2005 CF81)",57000,36.7089727178459,.06844838398442277,.4063347454047426,109.8010885011229,4.905655461535703,36.75843088068635,.004431448710519523,2005-02-10,8.3,222.416267851153
"       (2005 EB299)",57000,52.6895271173238,.5170379292585155,.7083744998244466,351.4904847820709,177.1339943344466,4.159216844530533,.002577019012308385,2005-03-11,8.3,382.46760255163
"       (2007 CT79)",54146,43.25454430532618,.1448655479474504,25.37531867274989,131.1479824008419,5.632185095188047,.003389021965512686,.003464626815332951,2007-02-14,8.3,284.482668957475
"       (2009 KJ30)",54978,46.54732195678606,.1889400881249053,30.5462584465269,253.2766339505497,354.6504153931533,359.9947325599923,.003103573426940045,2009-05-25,8.3,317.577884515956
"       (2011 UW410)",57000,39.56216507342537,.216174777023077,10.76639938912006,17.94459942935768,285.4507057159552,69.45761675178818,.003960809890770213,2011-08-30,8.3,248.844632928316
"       (2011 UX410)",57000,39.4764360819133,.330084817470552,17.48185469551763,223.9653158375004,263.4696209732346,307.3556716128732,.003973719130579808,2011-08-30,8.3,248.036222737198
"       (2012 UO177)",57000,41.55319763441918,.03345120071215219,16.43729250268769,290.0840678541446,333.3683381735593,129.6363886374716,.00367957279753415,2011-09-01,8.3,267.864324909693
"       (2009 JV18)",54971,45.08217967772236,.1165925746847838,13.63864069190463,104.3255277265506,230.4133182940785,211.2832209461912,.00325609236185295,2009-05-14,8.3315,302.702188339235
"       (2008 LD18)",57000,39.85757639794317,.3019342068775751,14.6199106741034,106.49955944,119.9746251033891,34.66092700979205,.003916857242037077,2008-06-07,8.3698,251.637019799821
"385185 (1993 RO)",57000,39.24681621192376,.1970068774493703,3.717780468401911,170.372939058769,188.9859926201195,24.89471119915283,.004008643422338133,1994-08-10,8.4,245.875269891845
"       (1998 HH151)",57000,39.40812841403298,.1903855240947704,8.779428446534453,194.765687128811,33.98303932478222,.7031135209439663,.003984055313217449,1998-04-28,8.4,247.392720702862
"       (1999 HZ11)",51289,42.38248864922829,.07870493462124871,10.05688658342655,170.0574034939902,19.98499670093436,.03668664504145059,.003572106448324261,1999-04-17,8.4,275.92298763379
"       (1999 RV215)",57000,44.65525972354291,.1828500418485969,22.02152675774909,351.9235912504999,26.84137657485068,17.1480304604247,.003302897866102744,1999-09-07,8.4,298.412582926927
"       (1999 TR11)",57000,39.60573142525411,.2473800127152997,17.13718178933831,54.71608428684065,347.9324076776058,28.7905361604669,.003954276344911889,1999-10-07,8.4,249.255792310974
"       (2000 QL226)",51786,39.27465182878351,.2135899190774561,2.197104971798568,168.7687484227064,78.35711622429405,67.22343206837515,.004004382533291967,2000-08-29,8.4,246.136895057646
"       (2000 YE2)",57000,48.21700999591382,.2093745340463664,3.825786659636123,224.6553765988661,236.3959581467294,345.8499652516081,.002943768544768326,2000-12-17,8.4,334.817859617127
"       (2001 DO108)",51964,42.95175512594987,3.777691875315432E-5,2.569288767209333,148.6538389074283,15.57533106123958,349.470887251219,.003501327230750385,2001-02-22,8.4,281.500761971432
"       (2001 OL108)",52194,45.54698367160171,.1072539553899099,2.68886001481432,115.2658452892086,190.051100859928,.311465481633936,.003206377423486729,2001-07-24,8.4,307.395591095371
"       (2002 CE251)",57000,39.52434768222746,.2706737827052839,9.27918751106745,342.4885198513305,214.7408939880483,358.8726598816304,.003966495879147477,2002-02-08,8.4,248.487913109694
"       (2002 PO153)",52501,44.09802053279288,3.542565697877832E-6,5.827554077564322,128.0895509064423,69.51175265651651,111.7825651718858,.003365700218108286,2002-08-14,8.4,292.844347237061
"       (2002 VY130)",52601,39.49289508963196,.2132886351362949,27.88358949517819,233.0027276208858,180.8813257414407,.05481733901763771,.003971235266373848,2002-11-07,8.4,248.191360434693
"       (2003 QX91)",57000,43.54444188943113,.2483682209999316,27.72540817703451,351.9585828844185,332.0365114168023,25.51414759873916,.003430085779966078,2003-08-23,8.4,287.3474153691
"       (2003 SO317)",57000,39.26259233593587,.2730229725197646,6.570823448054228,187.3311521670201,111.9444118936366,54.21361755217152,.004006227592198579,2003-09-25,8.4,246.023537276537
"       (2004 EH96)",57000,39.62592940652436,.2835722071760102,3.134502883006933,226.1487964834467,301.0759766709244,22.80873896219295,.003951253391671649,2004-03-15,8.4,249.446488409231
"       (2006 QG181)",53993,45.5436424268814,.521214576122178,7.300426576461066,38.91473991973324,322.2575015996331,12.51335032566771,.003206730276955037,2006-08-21,8.4,307.361766735013
"       (2006 UX184)",57000,38.01904967919688,.4629058635330316,37.41871142401135,39.47616303362143,21.02911469240398,357.2354034922652,.004204382195382989,2006-10-22,8.4,234.428326818127
"       (2009 JF19)",54973,43.9808335448898,.3003823354255923,16.10492939139088,60.02522692830303,21.13871689863061,67.59417149769253,.003379161043644371,2009-05-15,8.4,291.677807194585
"       (2011 HD103)",55742,44.09542035593276,.2588745411017389,5.720121563944839,121.186559456668,303.5017144969403,230.9560314328322,.003365997920616777,2011-04-28,8.4,292.818446895224
"       (2011 HK103)",57000,52.97326929149151,.3074974216225623,6.430360143469989,121.0623935223611,229.4456592948659,320.5866837514162,.002556341726500324,2011-04-28,8.4,385.561238996359
"       (2011 UP410)",57000,39.63323161590401,.1761076149450783,2.730272635099837,241.7701632379269,179.6716569624067,344.108950369659,.00395016144624994,2011-09-05,8.4,249.515443046829
"       (2011 UF411)",57000,47.83716683822032,.3472474855987218,5.866838978853729,261.8349636420072,195.8954703910351,328.4105497138929,.002978899818632843,2011-08-30,8.4,330.869228029262
"       (2011 UJ411)",57000,42.30237500328173,.1192885202250315,5.148325189515453,21.62739230877747,30.34197131800578,348.3538770395015,.003582258712359477,2011-08-29,8.4,275.141010884266
"       (2011 UW411)",57000,43.8725064347958,.1673612210748362,4.536517849596914,18.51583838927391,94.7414116876506,301.7433158041459,.003391684169635383,2011-08-29,8.4,290.600844321396
"       (2012 UU177)",56220,43.7906788,0.0348665,16.17045,283.15254,286.67972,184.49973,.003401195204101963,2012-10-19,8.4,289.788213913408
"       (2009 DP143)",57000,43.89914383523877,.1028495201873535,16.02135244012095,141.0152424400466,170.7669867066915,250.9078627870281,.003388597596584128,2009-02-18,8.4059,290.865544011811
"       (2009 DS143)",57000,49.52114156603031,.2468878345638909,11.00233454710436,98.29030153465369,77.78982409263817,10.07993594354841,.002828251998053431,2009-02-18,8.4689,348.493091862367
"       (2003 WN193)",57000,39.58904159470966,.2563944735337096,21.6143233880752,138.2722163975595,259.1130737392916,14.35383405154995,.003956777156547983,2003-11-17,8.4808,249.098254557112
" 73480 (2002 PN34)",57000,30.838557472412,.5675293034356608,16.63735704847892,299.2692439087366,358.2657983121323,27.49984292766369,.005755234070184793,2001-06-12,8.5,171.257375694523
"168700 (2000 GE147)",57000,39.47126828022861,.2332793321706824,4.989600748754857,154.649383922431,49.49725496945747,16.6772973512751,.003974499548797286,2000-04-02,8.5,247.98751925027
"385695 (2005 TO74)",57000,30.12280092364857,.05462057700436393,5.258146713122516,169.4478082636072,305.2708286985734,278.7586267602533,.005961575472983208,2005-10-08,8.5,165.329834006839
"       (1995 KK1)",49868,39.47305226934023,.1898073699234969,9.251406444853203,228.0941049904299,328.3547312704869,21.77333046269819,.003974230109899201,1995-05-30,8.5,248.004331936521
"       (1995 YY3)",50099,34.43394519143845,.1086246466461644,.6026177031859233,89.04746754481707,291.7904512494865,34.63105446351121,.004877798975015221,1995-12-24,8.5,202.063735798887
